[{"OBJECT_NAME":"STARLINK-31935","OBJECT_ID":"2024-098U","EPOCH":"2026-03-09T13:25:49.135008","MEAN_MOTION":15.27574978,"ECCENTRICITY":7.405e-5,"INCLINATION":43.0015,"RA_OF_ASC_NODE":278.9536,"ARG_OF_PERICENTER":273.1811,"MEAN_ANOMALY":86.8956,"EPHEMERIS_TYPE":0,"CLASSIFICATION_TYPE":"U","NORAD_CAT_ID":59876,"ELEMENT_SET_NO":999,"REV_AT_EPOCH":10182,"BSTAR":-6.226041e-6,"MEAN_MOTION_DOT":-4.33e-6,"MEAN_MOTION_DDOT":0},{"OBJECT_NAME":"COSMOS 252 DEB","OBJECT_ID":"1968-097CF","EPOCH":"2026-03-09T12:03:06.881472","MEAN_MOTION":13.89760968,"ECCENTRICITY":0.06306282,"INCLINATION":62.7318,"RA_OF_ASC_NODE":125.8805,"ARG_OF_PERICENTER":159.9223,"MEAN_ANOMALY":202.7883,"EPHEMERIS_TYPE":0,"CLASSIFICATION_TYPE":"U","NORAD_CAT_ID":4421,"ELEMENT_SET_NO":999,"REV_AT_EPOCH":54558,"BSTAR":0.0010172608,"MEAN_MOTION_DOT":6.493e-5,"MEAN_MOTION_DDOT":0}]
